{
    "links": {
        "self": "http://www.neowsapp.com/rest/v1/neo/3837913?api_key=iIulBulltgU6a56xZRHN4H3l9WmuAYTsLGpBGhQ2"
    },
    "id": "3837913",
    "neo_reference_id": "3837913",
    "name": "(2019 AQ13)",
    "designation": "2019 AQ13",
    "nasa_jpl_url": "http://ssd.jpl.nasa.gov/sbdb.cgi?sstr=3837913",
    "absolute_magnitude_h": 23.8,
    "estimated_diameter": {
        "kilometers": {
            "estimated_diameter_min": 0.046190746,
            "estimated_diameter_max": 0.1032856481
        },
        "meters": {
            "estimated_diameter_min": 46.1907460282,
            "estimated_diameter_max": 103.2856480504
        },
        "miles": {
            "estimated_diameter_min": 0.0287015901,
            "estimated_diameter_max": 0.0641787064
        },
        "feet": {
            "estimated_diameter_min": 151.544447199,
            "estimated_diameter_max": 338.8636855496
        }
    },
    "is_potentially_hazardous_asteroid": false,
    "close_approach_data": [
        {
            "close_approach_date": "2019-02-07",
            "close_approach_date_full": "2019-Feb-07 05:20",
            "epoch_date_close_approach": 1549516800000,
            "relative_velocity": {
                "kilometers_per_second": "12.2691358198",
                "kilometers_per_hour": "44168.8889511245",
                "miles_per_hour": "27444.829915214"
            },
            "miss_distance": {
                "astronomical": "0.0792526786",
                "lunar": "30.8292919754",
                "kilometers": "11856031.910354582",
                "miles": "7366996.6169219516"
            },
            "orbiting_body": "Earth"
        }
    ],
    "orbital_data": {
        "orbit_id": "3",
        "orbit_determination_date": "2019-02-11 07:09:03",
        "first_observation_date": "2019-01-14",
        "last_observation_date": "2019-02-09",
        "data_arc_in_days": 26,
        "observations_used": 17,
        "orbit_uncertainty": "8",
        "minimum_orbit_intersection": ".0318722",
        "jupiter_tisserand_invariant": "3.726",
        "epoch_osculation": "2458499.5",
        "eccentricity": ".5258122761684532",
        "semi_major_axis": "1.9347324338342",
        "inclination": "2.786540414791349",
        "ascending_node_longitude": "88.42943598741977",
        "orbital_period": "982.9463067054924",
        "perihelion_distance": ".9174263690229082",
        "perihelion_argument": "96.55507764339495",
        "aphelion_distance": "2.952038498645492",
        "perihelion_time": "2458555.266631535951",
        "mean_anomaly": "339.5757029494008",
        "mean_motion": ".3662458442990642",
        "equinox": "J2000",
        "orbit_class": {
            "orbit_class_type": "APO",
            "orbit_class_description": "Near-Earth asteroid orbits which cross the Earth’s orbit similar to that of 1862 Apollo",
            "orbit_class_range": "a (semi-major axis) > 1.0 AU; q (perihelion) < 1.017 AU"
        }
    },
    "is_sentry_object": false
}